start=new Date('2021-09-22T00:00:00.000Z').valueOf();
sats=[{"SITE":"AFETR","MEAN_ELEMENT_THEORY":"SGP4","PERIOD":"95.592","ECCENTRICITY":"0.00005670","LAUNCH_DATE":"2021-03-04","CENTER_NAME":"EARTH","MEAN_MOTION":"15.06397558","GP_ID":"185157935","FILE":"3121847","ARG_OF_PERICENTER":"126.6487","EPOCH":"2021-09-21T11:29:41.616960","REF_FRAME":"TEME","MEAN_MOTION_DOT":"0.00000588","MEAN_MOTION_DDOT":"0.0000000000000","OBJECT_NAME":"STARLINK-2195","INCLINATION":"53.0560","ELEMENT_SET_NO":"999","EPHEMERIS_TYPE":"0","OBJECT_TYPE":"PAYLOAD","DECAY_DATE":null,"TLE_LINE1":"1 47772U 21017BC  21264.47895390  .00000588  00000-0  58340-4 0  9993","CLASSIFICATION_TYPE":"U","NORAD_CAT_ID":"47772","MEAN_ANOMALY":"233.4554","PERIAPSIS":"546.828","SEMIMAJOR_AXIS":"6925.356","TIME_SYSTEM":"UTC","TLE_LINE2":"2 47772  53.0560 339.9085 0000567 126.6487 233.4554 15.06397558 31882","BSTAR":"0.00005834000000","OBJECT_ID":"2021-017BC","RA_OF_ASC_NODE":"339.9085","COUNTRY_CODE":"US","RCS_SIZE":"LARGE","APOAPSIS":"547.614","REV_AT_EPOCH":"3188"},{"RCS_SIZE":"LARGE","APOAPSIS":"547.907","REV_AT_EPOCH":"3187","TLE_LINE2":"2 47773  53.0562 339.9303 0000974  93.2945 266.8155 15.06393874 31871","BSTAR":"-0.00001920400000","OBJECT_ID":"2021-017BD","COUNTRY_CODE":"US","RA_OF_ASC_NODE":"339.9303","NORAD_CAT_ID":"47773","CLASSIFICATION_TYPE":"U","MEAN_ANOMALY":"266.8155","TIME_SYSTEM":"UTC","SEMIMAJOR_AXIS":"6925.367","PERIAPSIS":"546.558","DECAY_DATE":null,"TLE_LINE1":"1 47773U 21017BD  21264.47527906 -.00000567  00000-0 -19204-4 0  9994","OBJECT_NAME":"STARLINK-2196","INCLINATION":"53.0562","ELEMENT_SET_NO":"999","EPHEMERIS_TYPE":"0","OBJECT_TYPE":"PAYLOAD","GP_ID":"185158186","MEAN_MOTION":"15.06393874","FILE":"3121847","ARG_OF_PERICENTER":"93.2945","MEAN_MOTION_DDOT":"0.0000000000000","MEAN_MOTION_DOT":"-0.00000567","REF_FRAME":"TEME","EPOCH":"2021-09-21T11:24:24.110784","ECCENTRICITY":"0.00009740","LAUNCH_DATE":"2021-03-04","CENTER_NAME":"EARTH","SITE":"AFETR","MEAN_ELEMENT_THEORY":"SGP4","PERIOD":"95.593"},{"PERIOD":"95.593","SITE":"AFETR","MEAN_ELEMENT_THEORY":"SGP4","CENTER_NAME":"EARTH","ECCENTRICITY":"0.00014130","LAUNCH_DATE":"2021-03-04","ARG_OF_PERICENTER":"105.7213","MEAN_MOTION_DDOT":"0.0000000000000","MEAN_MOTION_DOT":"-0.00000844","REF_FRAME":"TEME","EPOCH":"2021-09-21T11:19:06.403296","GP_ID":"185158367","MEAN_MOTION":"15.06389375","FILE":"3121847","EPHEMERIS_TYPE":"0","OBJECT_TYPE":"PAYLOAD","OBJECT_NAME":"STARLINK-2197","ELEMENT_SET_NO":"999","INCLINATION":"53.0562","TLE_LINE1":"1 47774U 21017BE  21264.47160189 -.00000844  00000-0 -37777-4 0  9994","DECAY_DATE":null,"TIME_SYSTEM":"UTC","SEMIMAJOR_AXIS":"6925.381","PERIAPSIS":"546.268","NORAD_CAT_ID":"47774","CLASSIFICATION_TYPE":"U","MEAN_ANOMALY":"254.3932","COUNTRY_CODE":"US","RA_OF_ASC_NODE":"339.9428","TLE_LINE2":"2 47774  53.0562 339.9428 0001413 105.7213 254.3932 15.06389375 31883","BSTAR":"-0.00003777700000","OBJECT_ID":"2021-017BE","REV_AT_EPOCH":"3188","RCS_SIZE":"LARGE","APOAPSIS":"548.225"},{"MEAN_ANOMALY":"245.5228","NORAD_CAT_ID":"47775","CLASSIFICATION_TYPE":"U","TIME_SYSTEM":"UTC","SEMIMAJOR_AXIS":"6925.350","PERIAPSIS":"546.567","DECAY_DATE":null,"TLE_LINE1":"1 47775U 21017BF  21264.48264881 -.00000756  00000-0 -31872-4 0  9992","APOAPSIS":"547.863","RCS_SIZE":"LARGE","REV_AT_EPOCH":"3193","OBJECT_ID":"2021-017BF","TLE_LINE2":"2 47775  53.0567 339.9106 0000936 114.5858 245.5228 15.06399508 31939","BSTAR":"-0.00003187200000","COUNTRY_CODE":"US","RA_OF_ASC_NODE":"339.9106","LAUNCH_DATE":"2021-03-04","ECCENTRICITY":"0.00009360","CENTER_NAME":"EARTH","SITE":"AFETR","MEAN_ELEMENT_THEORY":"SGP4","PERIOD":"95.592","INCLINATION":"53.0567","ELEMENT_SET_NO":"999","OBJECT_NAME":"STARLINK-2198","OBJECT_TYPE":"PAYLOAD","EPHEMERIS_TYPE":"0","FILE":"3121847","GP_ID":"185157203","MEAN_MOTION":"15.06399508","MEAN_MOTION_DOT":"-0.00000756","MEAN_MOTION_DDOT":"0.0000000000000","EPOCH":"2021-09-21T11:35:00.857184","REF_FRAME":"TEME","ARG_OF_PERICENTER":"114.5858"},{"REV_AT_EPOCH":"3210","APOAPSIS":"548.086","RCS_SIZE":"LARGE","COUNTRY_CODE":"US","RA_OF_ASC_NODE":"327.9949","OBJECT_ID":"2021-017BG","BSTAR":"0.00000608600000","TLE_LINE2":"2 47776  53.0567 327.9949 0001244  88.8060 271.3072 15.06396380 32102","TIME_SYSTEM":"UTC","SEMIMAJOR_AXIS":"6925.360","PERIAPSIS":"546.363","MEAN_ANOMALY":"271.3072","NORAD_CAT_ID":"47776","CLASSIFICATION_TYPE":"U","TLE_LINE1":"1 47776U 21017BG  21264.90745598 -.00000191  00000-0  60860-5 0  9991","DECAY_DATE":null,"OBJECT_TYPE":"PAYLOAD","EPHEMERIS_TYPE":"0","INCLINATION":"53.0567","ELEMENT_SET_NO":"999","OBJECT_NAME":"STARLINK-2209","MEAN_MOTION_DDOT":"0.0000000000000","MEAN_MOTION_DOT":"-0.00000191","REF_FRAME":"TEME","EPOCH":"2021-09-21T21:46:44.196672","ARG_OF_PERICENTER":"88.8060","FILE":"3122258","GP_ID":"185189868","MEAN_MOTION":"15.06396380","CENTER_NAME":"EARTH","LAUNCH_DATE":"2021-03-04","ECCENTRICITY":"0.00012440","PERIOD":"95.592","SITE":"AFETR","MEAN_ELEMENT_THEORY":"SGP4"},{"REV_AT_EPOCH":"3210","APOAPSIS":"548.025","RCS_SIZE":"LARGE","RA_OF_ASC_NODE":"327.9823","COUNTRY_CODE":"US","OBJECT_ID":"2021-017BH","TLE_LINE2":"2 47777  53.0572 327.9823 0001133 105.8112 254.3002 15.06391119 32104","BSTAR":"0.00000983470000","PERIAPSIS":"546.456","SEMIMAJOR_AXIS":"6925.376","TIME_SYSTEM":"UTC","MEAN_ANOMALY":"254.3002","CLASSIFICATION_TYPE":"U","NORAD_CAT_ID":"47777","TLE_LINE1":"1 47777U 21017BH  21264.91114337 -.00000135  00000-0  98347-5 0  9993","DECAY_DATE":null,"OBJECT_TYPE":"PAYLOAD","EPHEMERIS_TYPE":"0","ELEMENT_SET_NO":"999","INCLINATION":"53.0572","OBJECT_NAME":"STARLINK-2210","EPOCH":"2021-09-21T21:52:02.787168","REF_FRAME":"TEME","MEAN_MOTION_DDOT":"0.0000000000000","MEAN_MOTION_DOT":"-0.00000135","ARG_OF_PERICENTER":"105.8112","FILE":"3122258","MEAN_MOTION":"15.06391119","GP_ID":"185189621","CENTER_NAME":"EARTH","LAUNCH_DATE":"2021-03-04","ECCENTRICITY":"0.00011330","PERIOD":"95.593","MEAN_ELEMENT_THEORY":"SGP4","SITE":"AFETR"},{"REV_AT_EPOCH":"3209","RCS_SIZE":"LARGE","APOAPSIS":"548.153","RA_OF_ASC_NODE":"328.2962","COUNTRY_CODE":"US","BSTAR":"-0.00008774800000","TLE_LINE2":"2 47778  53.0561 328.2962 0001326 104.8405 255.2731 15.06393142 32094","OBJECT_ID":"2021-017BJ","PERIAPSIS":"546.316","TIME_SYSTEM":"UTC","SEMIMAJOR_AXIS":"6925.370","CLASSIFICATION_TYPE":"U","NORAD_CAT_ID":"47778","MEAN_ANOMALY":"255.2731","TLE_LINE1":"1 47778U 21017BJ  21264.87797868 -.00001588  00000-0 -87748-4 0  9991","DECAY_DATE":null,"EPHEMERIS_TYPE":"0","OBJECT_TYPE":"PAYLOAD","OBJECT_NAME":"STARLINK-2211","ELEMENT_SET_NO":"999","INCLINATION":"53.0561","ARG_OF_PERICENTER":"104.8405","REF_FRAME":"TEME","EPOCH":"2021-09-21T21:04:17.357952","MEAN_MOTION_DDOT":"0.0000000000000","MEAN_MOTION_DOT":"-0.00001588","MEAN_MOTION":"15.06393142","GP_ID":"185188369","FILE":"3122258","CENTER_NAME":"EARTH","ECCENTRICITY":"0.00013260","LAUNCH_DATE":"2021-03-04","PERIOD":"95.593","SITE":"AFETR","MEAN_ELEMENT_THEORY":"SGP4"},{"FILE":"3122258","GP_ID":"185189117","MEAN_MOTION":"15.06393147","MEAN_MOTION_DOT":"-0.00000928","MEAN_MOTION_DDOT":"0.0000000000000","REF_FRAME":"TEME","EPOCH":"2021-09-21T21:25:31.656000","ARG_OF_PERICENTER":"77.0474","INCLINATION":"53.0566","ELEMENT_SET_NO":"999","OBJECT_NAME":"STARLINK-2212","OBJECT_TYPE":"PAYLOAD","EPHEMERIS_TYPE":"0","SITE":"AFETR","MEAN_ELEMENT_THEORY":"SGP4","PERIOD":"95.593","LAUNCH_DATE":"2021-03-04","ECCENTRICITY":"0.00011360","CENTER_NAME":"EARTH","OBJECT_ID":"2021-017BK","TLE_LINE2":"2 47779  53.0566 328.0532 0001136  77.0474 283.0642 15.06393147 32104","BSTAR":"-0.00004341800000","COUNTRY_CODE":"US","RA_OF_ASC_NODE":"328.0532","APOAPSIS":"548.021","RCS_SIZE":"LARGE","REV_AT_EPOCH":"3210","DECAY_DATE":null,"TLE_LINE1":"1 47779U 21017BK  21264.89272750 -.00000928  00000-0 -43418-4 0  9995","MEAN_ANOMALY":"283.0642","NORAD_CAT_ID":"47779","CLASSIFICATION_TYPE":"U","TIME_SYSTEM":"UTC","SEMIMAJOR_AXIS":"6925.370","PERIAPSIS":"546.448"},{"PERIOD":"95.592","SITE":"AFETR","MEAN_ELEMENT_THEORY":"SGP4","CENTER_NAME":"EARTH","ECCENTRICITY":"0.00008190","LAUNCH_DATE":"2021-03-04","ARG_OF_PERICENTER":"100.9324","REF_FRAME":"TEME","EPOCH":"2021-09-21T21:29:26.607840","MEAN_MOTION_DOT":"-0.00000857","MEAN_MOTION_DDOT":"0.0000000000000","MEAN_MOTION":"15.06400292","GP_ID":"185189371","FILE":"3122258","EPHEMERIS_TYPE":"0","OBJECT_TYPE":"PAYLOAD","OBJECT_NAME":"STARLINK-2213","ELEMENT_SET_NO":"999","INCLINATION":"53.0565","TLE_LINE1":"1 47780U 21017BL  21264.89544685 -.00000857  00000-0 -38681-4 0  9993","DECAY_DATE":null,"PERIAPSIS":"546.645","SEMIMAJOR_AXIS":"6925.348","TIME_SYSTEM":"UTC","CLASSIFICATION_TYPE":"U","NORAD_CAT_ID":"47780","MEAN_ANOMALY":"259.1757","RA_OF_ASC_NODE":"328.0462","COUNTRY_CODE":"US","TLE_LINE2":"2 47780  53.0565 328.0462 0000819 100.9324 259.1757 15.06400292 32138","BSTAR":"-0.00003868100000","OBJECT_ID":"2021-017BL","REV_AT_EPOCH":"3213","RCS_SIZE":"LARGE","APOAPSIS":"547.780"},{"ARG_OF_PERICENTER":"100.2193","MEAN_MOTION_DOT":"-0.00000942","MEAN_MOTION_DDOT":"0.0000000000000","EPOCH":"2021-09-21T20:53:40.191648","REF_FRAME":"TEME","GP_ID":"185190119","MEAN_MOTION":"15.06396405","FILE":"3122258","EPHEMERIS_TYPE":"0","OBJECT_TYPE":"PAYLOAD","OBJECT_NAME":"STARLINK-2223","ELEMENT_SET_NO":"999","INCLINATION":"53.0575","PERIOD":"95.592","SITE":"AFETR","MEAN_ELEMENT_THEORY":"SGP4","CENTER_NAME":"EARTH","ECCENTRICITY":"0.00008650","LAUNCH_DATE":"2021-03-04","COUNTRY_CODE":"US","RA_OF_ASC_NODE":"328.1603","BSTAR":"-0.00004436900000","TLE_LINE2":"2 47781  53.0575 328.1603 0000865 100.2193 259.8893 15.06396405 32088","OBJECT_ID":"2021-017BM","REV_AT_EPOCH":"3208","RCS_SIZE":"LARGE","APOAPSIS":"547.824","TLE_LINE1":"1 47781U 21017BM  21264.87060407 -.00000942  00000-0 -44369-4 0  9992","DECAY_DATE":null,"TIME_SYSTEM":"UTC","SEMIMAJOR_AXIS":"6925.360","PERIAPSIS":"546.626","NORAD_CAT_ID":"47781","CLASSIFICATION_TYPE":"U","MEAN_ANOMALY":"259.8893"}];
